Store No.,Name,Address,Street,City,State,Zip_Code,County,URL,Hours,Phone
191,Bj's Wholesale Club Fort Myers,"9372 6 Mile Cypress Parkway, Fort Myers, FL, 33912",9372 6 Mile Cypress Parkway,Fort Myers,FL,33912,Lee,https://www.bjs.com/cl/Fort-Myers/0191,Sun :- 12 PM-5PM  |  Mon-Fri :- 10 AM-7 PM |  Sat :- 9 AM-7PM,239-936-1528
135,Bj's Wholesale Club Orlando - Waterford Lakes Area,"12190 Lake Underhill Rd, Orlando, FL, 32825",12190 Lake Underhill Rd,Orlando,FL,32825,Orange,https://www.bjs.com/cl/Orlando---Waterford-Lakes-area/0135,Sun :- 12 PM-5PM  |  Mon-Fri :- 10 AM-7 PM |  Sat :- 9 AM-7PM,407-381-5446
128,Bj's Wholesale Club Sarasota,"8085 Cooper Creek Blvd, Bradenton, FL, 34201",8085 Cooper Creek Blvd,Bradenton,FL,34201,Manatee,https://www.bjs.com/cl/Sarasota/0128,Mon-Fri :- 10 AM-7 PM |  Sat :- 9 AM-7PM   |  Sun :- 12 PM-5 PM,941-358-3988
126,Bj's Wholesale Club Melbourne,"1155 Palm Bay Rd Ne, Palm Bay, FL, 32905",1155 Palm Bay Rd Ne,Palm Bay,FL,32905,Brevard,https://www.bjs.com/cl/Melbourne/0126,Sun :- 12 PM-5PM  |  Mon-Fri :- 10 AM-7 PM |  Sat :- 9 AM-7PM,321-725-9609
109,Bj's Wholesale Club Hollywood,"4000 Oakwood Blvd, Hollywood, FL, 33020",4000 Oakwood Blvd,Hollywood,FL,33020,Broward,https://www.bjs.com/cl/Hollywood/0109,Mon-Fri :- 10 AM-7 PM |  Sat :- 9 AM-7PM  | Sun :- 12 PM-5 PM,954-927-5065
174,Bj's Wholesale Club Miami Lakes,"17250 Nw 57th Ave, Hialeah, FL, 33015",17250 Nw 57th Ave,Hialeah,FL,33015,Miami-Dade,https://www.bjs.com/cl/Miami-Lakes/0174,Sun :- 12 PM-5PM  |  Mon-Fri :- 10 AM-7 PM |  Sat :- 9 AM-7PM,305-821-7591
390,Bj's Wholesale Club Lady Lake,"13585 Ne 86th Path, Lady Lake, FL, 32159",13585 Ne 86th Path,Lady Lake,FL,32159,Lake,https://www.bjs.com/cl/Lady-Lake/0390,Mon-Fri :- 10 AM-7 PM |  Sat :- 9AM-7PM |  Sun :- 12 PM-5 PM,352-259-1385
130,Bj's Wholesale Club Orlando - I-4 At Conroy Rd,"4697 Millenia Plaza Way, Orlando, FL, 32839",4697 Millenia Plaza Way,Orlando,FL,32839,Orange,https://www.bjs.com/cl/Orlando---I-4-at-Conroy-Rd./0130,Mon-Fri :- 10 AM-6 PM |  Sat :- 9 AM-7 PM  | Sun :- 12 PM-5 PM,407-363-7553
188,Bj's Wholesale Club Tampa - Waters Ave,"7651 W Waters Ave, Tampa, FL, 33615",7651 W Waters Ave,Tampa,FL,33615,Hillsborough,https://www.bjs.com/cl/Tampa---Waters-Ave./0188,Tue-Fri :- 10 AM-6 PM |  Sat :- 9 AM-7 PM,813-884-3414
223,Bj's Wholesale Club Port Charlotte,"19150 Quesada Ave, Port Charlotte, FL, 33948",19150 Quesada Ave,Port Charlotte,FL,33948,Charlotte,https://www.bjs.com/cl/Port-Charlotte/0223,Mon-Fri :- 10 AM-7 PM |  Sat :- 9 AM-7 PM | Sun :- 12 PM-5 PM,941-624-0719
111,Bj's Wholesale Club Hialeah,"8005 Nw 95th St, Hialeah, FL, 33016",8005 Nw 95th St,Hialeah,FL,33016,Miami-Dade,https://www.bjs.com/cl/Hialeah/0111,Mon-Fri :- 10 AM-6 PM |  Sat :- 9 AM-7 PM  | Sun :- 12 PM-5 PM,305-825-0770
91,Bj's Wholesale Club Cutler Ridge,"10425 Marlin Rd, Miami, FL, 33157",10425 Marlin Rd,Miami,FL,33157,Miami-Dade,https://www.bjs.com/cl/Cutler-Ridge/0091,Mon-Fri :- 10 AM-7 PM |  Sat :- 9 AM-7PM  | Sun :- 12 PM-5 PM,305-254-8444
179,Bj's Wholesale Club West Kendall,"16200 Sw 88th St, Miami, FL, 33196",16200 Sw 88th St,Miami,FL,33196,Miami-Dade,https://www.bjs.com/cl/West-Kendall/0179,Sun :- 12 PM-5PM  |  Mon-Fri :- 10 AM-7 PM |  Sat :- 9 AM-7PM,305-385-9819
171,Bj's Wholesale Club Jacksonville - Phillips Highway,"8046 Philips Hwy, Jacksonville, FL, 32256",8046 Philips Hwy,Jacksonville,FL,32256,Duval,https://www.bjs.com/cl/Jacksonville---Phillips-Highway/0171,Mon-Fri :- 10 AM-6 PM | Sat :- 9 AM-7 PM | Sun :- 12 PM-5 PM,904-733-7483
221,Bj's Wholesale Club Clearwater,"26996 Us Highway 19 N Clearwater, Clearwater, FL, 33761",26996 Us Highway 19 N Clearwater,Clearwater,FL,33761,Pinellas,https://www.bjs.com/cl/Clearwater/0221,Sun :- 12 PM-5PM  |  Mon-Fri :- 10 AM-7 PM |  Sat :- 9 AM-7PM,727-286-4628
51,Bj's Wholesale Club Kendall,"7007 Sw 117th Ave, Miami, FL, 33183",7007 Sw 117th Ave,Miami,FL,33183,Miami-Dade,https://www.bjs.com/cl/Kendall/0051,Sun :- 12 PM-5PM  |  Mon-Fri :- 10 AM-7 PM |  Sat :- 9 AM-7PM,305-598-4005
169,Bj's Wholesale Club Cape Coral,"1929 Ne Pine Island Rd, Cape Coral, FL, 33909",1929 Ne Pine Island Rd,Cape Coral,FL,33909,Lee,https://www.bjs.com/cl/Cape-Coral/0169,Sun :- 12 PM-5PM  |  Mon-Fri :- 10 AM-7 PM |  Sat :- 9 AM-7PM,239-573-6427
108,Bj's Wholesale Club Jacksonville - Atlantic Blvd,"12200 Atlantic Blvd, Jacksonville, FL, 32225",12200 Atlantic Blvd,Jacksonville,FL,32225,Duval,https://www.bjs.com/cl/Jacksonville---Atlantic-Blvd-/0108,Mon-Fri :- 10 AM-6 PM |  Sat :- 9 AM-7 PM  | Sun :- 12 PM-5 PM,904-220-2546
125,Bj's Wholesale Club Orange Park,"560 Blanding Blvd, Orange Park, FL, 32073",560 Blanding Blvd,Orange Park,FL,32073,Clay,https://www.bjs.com/cl/Orange-Park/0125,Tues-Fri :- 10 AM-6 PM | Sat :- 9 AM-7 PM,904-272-4511
106,Bj's Wholesale Club Parkland,"5901 W Hillsboro Blvd, Pompano Beach, FL, 33067",5901 W Hillsboro Blvd,Pompano Beach,FL,33067,Broward,https://www.bjs.com/cl/Parkland/0106,Mon-Fri :- 10 AM-7 PM |  Sat :- 9 AM-7PM  | Sun :- 12 PM-5 PM,954-346-4510
32,Bj's Wholesale Club Royal Palm Beach,"500 N State Road 7, West Palm Beach, FL, 33411",500 N State Road 7,West Palm Beach,FL,33411,Palm Beach,https://www.bjs.com/cl/Royal-Palm-Beach/0032,Sun :- 12 PM-5PM  |  Mon-Fri :- 10 AM-7 PM |  Sat :- 9 AM-7PM,561-753-6401
365,Bj's Wholesale Club Coral Springs,"620 Riverside Dr, Coral Springs, FL, 33071",620 Riverside Dr,Coral Springs,FL,33071,Broward,https://www.bjs.com/cl/Coral-Springs/0365,Sun :- 12 PM-5PM  |  Mon-Fri :- 10 AM-7 PM |  Sat :- 9 AM-7PM,954-227-1289
361,Bj's Wholesale Club Port Orange,"1800 Dunlawton Ave, Port Orange, FL, 32127",1800 Dunlawton Ave,Port Orange,FL,32127,Volusia,https://www.bjs.com/cl/Port-Orange/0361,Tue-Fri :- 10 AM-6 PM |  Sat :- 9 AM-7PM,386-756-8406
133,Bj's Wholesale Club Sanford,"W State Rd 46 And Upsala Rd, Sanford, FL, 32771",W State Rd 46 And Upsala Rd,Sanford,FL,32771,Seminole,https://www.bjs.com/cl/Sanford/0133,Mon-Fri :- 10 AM-7 PM | Sat :- 9 AM-7 PM  | Sun :- 12 PM-5 PM,407-322-5114
382,Bj's Wholesale Club Pensacola,"7005 North Davis Highway, Pensacola, FL, 32504",7005 North Davis Highway,Pensacola,FL,32504,Escambia,https://www.bjs.com/cl/Pensacola/0382,Sun :- 12 PM-5PM  |  Mon-Fri :- 10 AM-7 PM |  Sat :- 9 AM-7PM,850-476-2633
129,Bj's Wholesale Club Boynton Beach,"1540 W Boynton Beach Blvd, Boynton Beach, FL, 33436",1540 W Boynton Beach Blvd,Boynton Beach,FL,33436,Palm Beach,https://www.bjs.com/cl/Boynton-Beach/0129,Sun :- 12 PM-5PM  |  Mon-Fri :- 10 AM-7 PM |  Sat :- 9 AM-7PM,561-740-3191
181,Bj's Wholesale Club Fort Lauderdale,"5100 Nw 9th Ave, Fort Lauderdale, FL, 33309",5100 Nw 9th Ave,Fort Lauderdale,FL,33309,Broward,https://www.bjs.com/cl/Fort-Lauderdale/0181,Sun :- 12 PM-5PM  |  Mon-Fri :- 10 AM-6 PM |  Sat :- 9 AM-7PM,954-771-5592
154,Bj's Wholesale Club Kissimmee,"1100 W Osceola Pkwy, Kissimmee, FL, 34741",1100 W Osceola Pkwy,Kissimmee,FL,34741,Osceola,https://www.bjs.com/cl/Kissimmee/0154,Sun :- 12 PM-5PM  |  Mon-Fri :- 10 AM-6 PM |  Sat :- 9 AM-7PM,407-932-0389
183,Bj's Wholesale Club Tampa,"6290 Commerce Palms Blvd, Tampa, FL, 33647",6290 Commerce Palms Blvd,Tampa,FL,33647,Hillsborough,https://www.bjs.com/cl/Tampa/0183,Tues-Fri :- 10 AM-6 PM |  Sat :- 9 AM-7PM,813-979-2020
107,Bj's Wholesale Club Jensen Beach,"4150 Nw Federal Hwy, Jensen Beach, FL, 34957",4150 Nw Federal Hwy,Jensen Beach,FL,34957,Martin,https://www.bjs.com/cl/Jensen-Beach/0107,Mon-Fri 10AM-7PM  |  Sat :- 9 AM-7 PM | Sun :- 12 PM -5PM,772-692-4630
120,Bj's Wholesale Club Merritt Island,"415 East Merritt Ave, Merritt Island, FL, 32953",415 East Merritt Ave,Merritt Island,FL,32953,Brevard,https://www.bjs.com/cl/Merritt-Island/0120,Mon-Fri :- 10 AM-7 PM |  Sat :- 9 AM-7PM   |  Sun :- 12 PM-5 PM,321-449-0650
199,Bj's Wholesale Club Clermont,"2577 S Hwy 27, Clermont, FL, 34711",2577 S Hwy 27,Clermont,FL,34711,Lake,https://www.bjs.com/cl/Clermont/0199,Sun :- 12 PM-5PM  |  Mon-Fri :- 10 AM-7 PM |  Sat :- 9 AM-7PM,352-241-0490
152,Bj's Wholesale Club East Point,"3585 N Commerce Dr, Atlanta, GA, 30344",3585 N Commerce Dr,Atlanta,GA,30344,Fulton,https://www.bjs.com/cl/East-Point/0152,Sun :- 12 PM-5 PM  |  Mon-Fri :- 10 AM-6 PM | Sat :- 9 AM-7 PM,404-349-5804
146,Bj's Wholesale Club Woodstock,"105 Long Dr, Woodstock, GA, 30189",105 Long Dr,Woodstock,GA,30189,Cherokee,https://www.bjs.com/cl/Woodstock/0146,Sun:12PM-5PM | Mon-Fri 10AM-6PM | Sat :- 10 AM-6 PM,678-494-1825
147,Bj's Wholesale Club Newnan,"331 Newnan Crossing Bypass, Newnan, GA, 30265",331 Newnan Crossing Bypass,Newnan,GA,30265,Coweta,https://www.bjs.com/cl/Newnan/0147,Mon-Fri :- 10 AM-6 PM |  Sat :- 9 AM-7 PM  | Sun :- 12 PM-5 PM,678-423-7231
150,Bj's Wholesale Club Conyers,"1800 Dogwood Dr Se, Conyers, GA, 30013",1800 Dogwood Dr Se,Conyers,GA,30013,Rockdale,https://www.bjs.com/cl/Conyers/0150,Mon-Fri :- 10 AM-7 PM |  Sat :- 9 AM-7PM,770-761-3629
144,Bj's Wholesale Club Cumming,"1725 Marketplace Blvd, Cumming, GA, 30041",1725 Marketplace Blvd,Cumming,GA,30041,Forsyth,https://www.bjs.com/cl/Cumming/0144,Sun:12PM-5PM | Mon-Fri :- 10 AM-6 PM | Sat :- 9 AM-6 PM,770-889-5893
224,Bj's Wholesale Club Noblesville,"13210 Tegler Drive, Noblesville, IN, 46060",13210 Tegler Drive,Noblesville,IN,46060,Hamilton,https://www.bjs.com/cl/Noblesville/0224,Mon-Fri :- 10 AM-7 PM |  Sat :- 9 AM-7 PM | Sun :- 12 PM-5 PM,941-624-0719
355,Bj's Wholesale Club Pittsfield,"495 Hubbard Ave, Pittsfield, MA, 01201",495 Hubbard Ave,Pittsfield,MA,1201,Berkshire,https://www.bjs.com/cl/Pittsfield/0355,Mon-Sat :- 9 AM-6 PM,413-499-0741
1,Bj's Wholesale Club Medford,"278 Middlesex Ave, Medford, MA, 02155",278 Middlesex Ave,Medford,MA,2155,Middlesex,https://www.bjs.com/cl/Medford/0001,Mon-Fri :- 10 AM-7 PM | Sat :- 9 AM-7 PM | Sun :- 12 PM-5 PM,781-396-2322
38,Bj's Wholesale Club Auburn,"777 Washington St, Auburn, MA, 01501",777 Washington St,Auburn,MA,1501,Worcester,https://www.bjs.com/cl/Auburn/0038,Sun :- 12 PM-5 PM | Mon-Fri :- 10 AM-7 PM | Sat :- 9 AM-7 PM,508-832-3010
30,Bj's Wholesale Club Danvers,"6 Hutchinson Dr, Danvers, MA, 01923",6 Hutchinson Dr,Danvers,MA,1923,Essex,https://www.bjs.com/cl/Danvers/0030,Mon-Sat :- 10 AM-6 PM | Sun :- 12 PM-5 PM,978-750-4766
307,Bj's Wholesale Club Greenfield,"42 Colrain Rd, Greenfield, MA, 01301",42 Colrain Rd,Greenfield,MA,1301,Franklin,https://www.bjs.com/cl/Greenfield/0307,Sun :- 12 PM-5PM  |  Mon-Fri :- 10 AM-7 PM |  Sat :- 9 AM-7PM,413-774-6284
47,Bj's Wholesale Club Framingham,"26 Whittier St, Framingham, MA, 01701",26 Whittier St,Framingham,MA,1701,Middlesex,https://www.bjs.com/cl/Framingham/0047,Sun :- 12 PM-5PM | Mon-Fri :- 10 AM-7 PM |  Sat :- 9 AM-7PM,508-626-1355
175,Bj's Wholesale Club Revere,"5 Ward St, Revere, MA, 02151",5 Ward St,Revere,MA,2151,Suffolk,https://www.bjs.com/cl/Revere/0175,Sun :- 12 PM-5 PM |  Mon-Fri :- 10 AM-7 PM | Sat :- 9 AM-7 PM,781-284-5211
105,Bj's Wholesale Club Franklin,"100 Corporate Dr, Franklin, MA, 02038",100 Corporate Dr,Franklin,MA,2038,Norfolk,https://www.bjs.com/cl/Franklin/0105,Sun :- 12 PM-5PM  |  Mon-Fri :- 10 AM-8 PM |  Sat :- 9 AM-7PM,508-553-9377
58,Bj's Wholesale Club Leominster,"115 Erdman Way, Leominster, MA, 01453",115 Erdman Way,Leominster,MA,1453,Worcester,https://www.bjs.com/cl/Leominster/0058,Sun :- 12 PM-5PM  |  Mon-Fri :- 10 AM-7 PM |  Sat :- 9 AM-7PM,978-840-0900
101,Bj's Wholesale Club Dedham,"688 Providence Hwy, Dedham, MA, 02026",688 Providence Hwy,Dedham,MA,2026,Norfolk,https://www.bjs.com/cl/Dedham/0101,Mon10AM-7 PM | Tues/Thurs :- 10 AM-6 PM,781-326-2697
55,Bj's Wholesale Club South Attleboro,"287 Washington St, Attleboro, MA, 02703",287 Washington St,Attleboro,MA,2703,Bristol,https://www.bjs.com/cl/South-Attleboro/0055,Sun :- 12 PM-5PM  |  Mon-Fri :- 10 AM-7 PM |  Sat :- 9 AM-7PM,508-399-6036
113,Bj's Wholesale Club Plymouth,"105 Shops At 5 Way, Plymouth, MA, 02360",105 Shops At 5 Way,Plymouth,MA,2360,Plymouth,https://www.bjs.com/cl/Plymouth/0113,Sun :- 12 PM-5PM  |  Mon-Fri :- 10 AM-8 PM |  Sat :- 9 AM-7PM,508-732-0420
205,Bj's Wholesale Club Waltham,"66 Seyon St, Waltham, MA, 02453",66 Seyon St,Waltham,MA,2453,Middlesex,https://www.bjs.com/cl/Waltham/0205,Mon/Tues/Thurs/Fri :- 10 AM-7 PM | Sat :- 9 AM-2PM |  Sun :- 12 PM-5 PM,781-891-0136
353,Bj's Wholesale Club Quincy,"200 Crown Colony Dr, Quincy, MA, 02169",200 Crown Colony Dr,Quincy,MA,2169,Norfolk,https://www.bjs.com/cl/Quincy/0353,Sun :- 12 PM-5PM  |  Mon-Fri :- 10 AM-7 PM |  Sat :- 9 AM-7PM,617-479-0166
23,Bj's Wholesale Club North Dartmouth,"460 State Rd, North Dartmouth, MA, 02747",460 State Rd,North Dartmouth,MA,2747,Bristol,https://www.bjs.com/cl/North-Dartmouth/0023,Sun :- 12 PM-5PM  |  Mon-Fri :- 10 AM-7 PM |  Sat :- 9 AM-7PM,508-997-1600
34,Bj's Wholesale Club Stoughton,"901 Technology Center Dr, Stoughton, MA, 02072",901 Technology Center Dr,Stoughton,MA,2072,Norfolk,https://www.bjs.com/cl/Stoughton/0034,Tues-Fri :- 10 AM-7 PM |  Sat :- 9 AM-7PM,781-341-0110
209,Bj's Wholesale Club Hudson,"1 Highland Commons West, Hudson, MA, 01749",1 Highland Commons West,Hudson,MA,1749,Middlesex,https://www.bjs.com/cl/Hudson/0209,Mon-Fri :- 10 AM-7 PM |  Sat :- 9 AM-7PM,978-568-0683
216,Bj's Wholesale Club Seekonk,"175 Highland Ave, Seekonk, MA, 02771",175 Highland Ave,Seekonk,MA,2771,Bristol,https://www.bjs.com/cl/Seekonk/0216,Sun :- 12 PM-5PM  |  Mon-Fri :- 10 AM-7 PM |  Sat :- 9 AM-7PM,508-336-4583
159,Bj's Wholesale Club Taunton,"2085 Bay St, Taunton, MA, 02780",2085 Bay St,Taunton,MA,2780,Bristol,https://www.bjs.com/cl/Taunton/0159,Sun :- 12 PM-5PM  |  Mon-Fri :- 10 AM-7 PM |  Sat :- 9 AM-7PM,508-823-1027
189,Bj's Wholesale Club Haverhill,"25 Shelley Rd, Haverhill, MA, 01835",25 Shelley Rd,Haverhill,MA,1835,Essex,https://www.bjs.com/cl/Haverhill/0189,Sun :- 12 PM-5PM  |  Mon-Fri :- 10 AM-7 PM |  Sat :- 9 AM-7PM,978-374-0236
50,Bj's Wholesale Club Stoneham,"85 Cedar St, Stoneham, MA, 02180",85 Cedar St,Stoneham,MA,2180,Middlesex,https://www.bjs.com/cl/Stoneham/0050,Mon-Fri :- 10 AM-7 PM |  Sat :- 9 AM-7PM   |  Sun :- 12 PM-5 PM,781-279-4347
321,Bj's Wholesale Club Hyannis,"420 Attucks Ln, Hyannis, MA, 02601",420 Attucks Ln,Hyannis,MA,2601,Barnstable,https://www.bjs.com/cl/Hyannis/0321,Mon/Tues/Thurs :- 10 AM-6PM | Wed/Fri :- 10AM-7 PM |  Sat :- 9 AM-5PM,508-771-0826
211,Bj's Wholesale Club Northborough,"6102 Shops Way, Northborough, MA, 01532",6102 Shops Way,Northborough,MA,1532,Worcester,https://www.bjs.com/cl/Northborough/0211,Sun :- 12 PM-5PM  |  Mon-Fri :- 10 AM-7 PM |  Sat :- 9 AM-7PM,508-393-3211
18,Bj's Wholesale Club Weymouth,"622 Washington St Rte 53, Weymouth, MA, 02188",622 Washington St Rte 53,Weymouth,MA,2188,Norfolk,https://www.bjs.com/cl/Weymouth/0018,Sun :- 12 PM-5 PM  | Tues-Fri :- 10 AM-7 PM |  Sat :- 9 AM-7 PM,781-335-9019
20,Bj's Wholesale Club Chicopee,"650 Memorial Dr, Chicopee, MA, 01020",650 Memorial Dr,Chicopee,MA,1020,Hampden,https://www.bjs.com/cl/Chicopee/0020,Sun :- 11 AM-4PM  |  Mon-Fri :- 9 AM-7 PM |  Sat :- 9 AM-6 PM,413-593-5355
60,Bj's Wholesale Club Columbia,"9011 Snowden River Pkwy, Columbia, MD, 21046",9011 Snowden River Pkwy,Columbia,MD,21046,Howard,https://www.bjs.com/cl/Columbia/0060,Mon-Fri :- 10 AM-7 PM |  Sat :- 9 AM-7PM  | Sun :- 12 PM-5 PM,410-312-2984
72,Bj's Wholesale Club Waldorf,"1000 St Nicholas Dr, Waldorf, MD, 20603",1000 St Nicholas Dr,Waldorf,MD,20603,Charles,https://www.bjs.com/cl/Waldorf/0072,Tues-Fri :- 10 AM-7 PM | Sat :- 9 AM-6 PM,301-705-5100
317,Bj's Wholesale Club Lexington Park,"44950 Worth Ln, California, MD, 20619",44950 Worth Ln,California,MD,20619,St. Mary's,https://www.bjs.com/cl/Lexington-Park/0317,Sun :- 12 PM-5 PM | Mon-Fri :- 10 AM-6 PM | Sat :- 9 AM-6 PM,301-862-1000
131,Bj's Wholesale Club Westminster,"820 Market St, Westminster, MD, 21157",820 Market St,Westminster,MD,21157,Carroll,https://www.bjs.com/cl/Westminster/0131,Sun :- 12 PM-5PM  |  Mon-Fri :- 10 AM-7 PM |  Sat :- 9 AM-7PM,410-848-2507
61,Bj's Wholesale Club Owings Mills,"55 Music Fair Rd, Owings Mills, MD, 21117",55 Music Fair Rd,Owings Mills,MD,21117,Baltimore,https://www.bjs.com/cl/Owings-Mills/0061,Sun:12PM-5PM | Mon-Fri :- 10 AM-6 PM |  Sat :- 9AM-7PM,410-356-6974
59,Bj's Wholesale Club Pasadena,"8139 Ritchie Highway, Pasadena, MD, 21122",8139 Ritchie Highway,Pasadena,MD,21122,Anne Arundel,https://www.bjs.com/cl/Pasadena/0059,Sun :- 12 PM-5PM  |  Mon-Fri :- 10 AM-7 PM |  Sat :- 9 AM-7PM,410-544-3619
40,Bj's Wholesale Club Baltimore,"4201 Wholesale Club Dr, Nottingham, MD, 21236",4201 Wholesale Club Dr,Nottingham,MD,21236,Baltimore,https://www.bjs.com/cl/Baltimore/0040,Mon-Fri :- 10 AM-7 PM |  Sat :- 9 AM-6PM,410-665-7560
377,Bj's Wholesale Club Canton - Baltimore,"4701 O&sDonnell St, Baltimore, MD, 21224",4701 O&sDonnell St,Baltimore,MD,21224,Baltimore city,https://www.bjs.com/cl/Canton---Baltimore/0377,Mon-Fri :- 10 AM-6 PM |  Sat :- 9 AM-6PM,410-276-1540
132,Bj's Wholesale Club Bowie,"16520 Ball Park Rd, Bowie, MD, 20716",16520 Ball Park Rd,Bowie,MD,20716,Prince George's,https://www.bjs.com/cl/Bowie/0132,Tues-Fri :- 10 AM-7 PM |  Sat :- 9 AM-7 PM,301-805-4373
71,Bj's Wholesale Club Bel Air,"413 Constant Friendship Blvd, Abingdon, MD, 21009",413 Constant Friendship Blvd,Abingdon,MD,21009,Harford,https://www.bjs.com/cl/Bel-Air/0071,Sun:12PM-5PM | Mon-Fri :- 10 AM-6 PM |  Sat :- 9 AM-6 PM,410-569-0788
207,Bj's Wholesale Club Capitol Heights,"1781 Ritchie Station Ct, Capitol Heights, MD, 20743",1781 Ritchie Station Ct,Capitol Heights,MD,20743,Prince George's,https://www.bjs.com/cl/Capitol-Heights/0207,Mon/Tues/Wed/Fri :- 10 AM-6 PM | Sat :- 9 AM-6PM,301-350-3435
310,Bj's Wholesale Club Auburn,"110 Mt Auburn Ave, Auburn, ME, 04210",110 Mt Auburn Ave,Auburn,ME,4210,Androscoggin,https://www.bjs.com/cl/Auburn/0310,Mon-Fri :- 10 AM-6 PM |  Sat :- 9 AM-7 PM   |  Sun :- 12 PM-5 PM,207-786-8031
374,Bj's Wholesale Club Bangor,"110 Longview Dr, Bangor, ME, 04401",110 Longview Dr,Bangor,ME,4401,Penobscot,https://www.bjs.com/cl/Bangor/0374,Sun :- 12 PM-5PM |  Mon-Fri :- 10 AM-6 PM | Sat :- 9 AM-7PM,207-262-2351
29,Bj's Wholesale Club Portland,"513 Warren Ave, Portland, ME, 04103",513 Warren Ave,Portland,ME,4103,Cumberland,https://www.bjs.com/cl/Portland/0029,Sun :- 12 PM-5PM | Mon-Fri :- 10 AM-6 PM |  Sat :- 9 AM-7 PM,207-878-8808
383,Bj's Wholesale Club Madison Heights,"29101 John R Road, Madison Heights, MI, 48071",29101 John R Road,Madison Heights,MI,48071,Oakland,https://www.bjs.com/cl/Madison-Heights/0383,Mon-Fri :- 10 AM-6 PM |  Sat :- 9AM-7PM |  Sun :- 12 PM-5 PM,248-548-3242
225,Bj's Wholesale Club Canton - Michigan,"43690 Ford Rd, Canton, MI, 48187",43690 Ford Rd,Canton,MI,48187,Wayne,https://www.bjs.com/cl/Canton---Michigan/0225,Mon-Fri :- 10 AM-7 PM |  Sat :- 9AM-7PM,734-459-5669
384,Bj's Wholesale Club Taylor,"15523 Racho Road, Taylor, MI, 48180",15523 Racho Road,Taylor,MI,48180,Wayne,https://www.bjs.com/cl/Taylor/0384,Sun :- 12 PM-5PM  |  Mon-Fri :- 10 AM-7 PM |  Sat :- 9 AM-7PM,734-287-2829
385,Bj's Wholesale Club Chesterfield,"45101 Towne Center Blvd, New Baltimore, MI, 48047",45101 Towne Center Blvd,New Baltimore,MI,48047,Macomb,https://www.bjs.com/cl/Chesterfield/0385,Sun :- 12 PM-5PM  |  Mon-Fri :- 10 AM-7 PM |  Sat :- 9 AM-7PM,586-949-3566
389,Bj's Wholesale Club Lansing,"825 N Marketplace Blvd, Lansing, MI, 48917",825 N Marketplace Blvd,Lansing,MI,48917,Eaton,https://www.bjs.com/cl/Lansing/0389,Mon-Fri :- 10 AM-7 PM |  Sat :- 9AM-7PM |  Sun :- 12 PM-5 PM,517-622-8261
114,Bj's Wholesale Club Pineville,"11715 Carolina Place Pkwy, Pineville, NC, 28134",11715 Carolina Place Pkwy,Pineville,NC,28134,Mecklenburg,https://www.bjs.com/cl/Pineville/0114,Sun :- 12 PM-5PM  |  Mon-Fri :- 10 AM-7 PM |  Sat :- 9 AM-7PM,704-759-0278
357,Bj's Wholesale Club Burlington,"1433 Boone Station Dr, Burlington, NC, 27215",1433 Boone Station Dr,Burlington,NC,27215,Alamance,https://www.bjs.com/cl/Burlington/0357,Sun :- 12 PM-5PM  |  Mon-Fri :- 10 AM-6 PM |  Sat :- 9 AM-7PM,336-584-3986
118,Bj's Wholesale Club Mooresville,"141 Gallery Center Dr, Mooresville, NC, 28117",141 Gallery Center Dr,Mooresville,NC,28117,Iredell,https://www.bjs.com/cl/Mooresville/0118,Sun :- 12 PM-5PM  |  Mon-Fri :- 10 AM-6 PM |  Sat :- 9 AM-7PM,704-799-3476
134,Bj's Wholesale Club Concord,"7905 Lyles Ln, Concord, NC, 28027",7905 Lyles Ln,Concord,NC,28027,Cabarrus,https://www.bjs.com/cl/Concord/0134,Sun :- 12 PM-5PM | Mon-Fri :- 10 AM-6 PM | Sat :- 9 AM-6PM,704-979-0451
110,Bj's Wholesale Club Cary,"2370 Walnut St, Cary, NC, 27511",2370 Walnut St,Cary,NC,27511,Wake,https://www.bjs.com/cl/Cary/0110,Sun :- 12 PM-5 PM |  Mon-Fri :- 10 AM-7 PM | Sat :- 9 AM-7 PM,919-859-6930
123,Bj's Wholesale Club Raleigh,"8811 Brier Creek Pkwy, Raleigh, NC, 27617",8811 Brier Creek Pkwy,Raleigh,NC,27617,Wake,https://www.bjs.com/cl/Raleigh/0123,Sun :- 12 PM-5PM  |  Mon-Fri :- 10 AM-6 PM |  Sat :- 9 AM-7PM,919-572-5582
177,Bj's Wholesale Club Raleigh - Capital Boulevard,"6301 Triangle Plantation Dr, Raleigh, NC, 27616",6301 Triangle Plantation Dr,Raleigh,NC,27616,Wake,https://www.bjs.com/cl/Raleigh---Capital-Boulevard/0177,Sun :- 12 PM-5PM  |  Mon-Fri :- 10 AM-6 PM |  Sat :- 9 AM-7PM,919-862-0994
151,Bj's Wholesale Club Garner,"255 Shenstone Blvd, Garner, NC, 27529",255 Shenstone Blvd,Garner,NC,27529,Wake,https://www.bjs.com/cl/Garner/0151,Sun :- 12 PM-5PM  |  Mon-Fri :- 10 AM-7 PM |  Sat :- 9 AM-7PM,919-772-9246
215,Bj's Wholesale Club Fayetteville,"5200 Red Tip Rd, Fayetteville, NC, 28314",5200 Red Tip Rd,Fayetteville,NC,28314,Cumberland,https://www.bjs.com/cl/Fayetteville/0215,Sun :- 12 PM-5PM  |  Mon-Fri :- 10 AM-6 PM |  Sat :- 9 AM-7PM,910-867-1068
220,Bj's Wholesale Club Manchester,"200 John E Devine Drive, Manchester, NH, 03103",200 John E Devine Drive,Manchester,NH,3103,Hillsborough,https://www.bjs.com/cl/Manchester/0220,Sun :- 12 PM-5 PM | Mon/Tues/Thurs/Fri :- 10 AM-7 PM | Sat :- 9 AM-7 PM,603-626-0357
17,Bj's Wholesale Club Salem,"70 Cluff Rd, Salem, NH, 03079",70 Cluff Rd,Salem,NH,3079,Rockingham,https://www.bjs.com/cl/Salem/0017,Mon-Fri :- 10 AM-7 PM |  Sat :- 9 AM-7 PM |  Sun :- 12 PM-5 PM,603-894-5112
320,Bj's Wholesale Club W. Lebanon,"262 Plainfield Rd, West Lebanon, NH, 03784",262 Plainfield Rd,West Lebanon,NH,3784,Grafton,https://www.bjs.com/cl/W.-Lebanon/0320,Tue/Wed:10 AM-4 PM | Fri:11 AM-7 PM |  Sat :- 9 AM- 4 PM,603-298-6533
381,Bj's Wholesale Club Seabrook,"30 Perkins Ave, Seabrook, NH, 03874",30 Perkins Ave,Seabrook,NH,3874,Rockingham,https://www.bjs.com/cl/Seabrook/0381,Mon-Fri :- 10 AM-7 PM |  Sat :- 9AM-7PM |  Sun :- 12 PM-5 PM,603-474-0584
62,Bj's Wholesale Club Portsmouth,"1801 Woodbury Ave, Portsmouth, NH, 03801",1801 Woodbury Ave,Portsmouth,NH,3801,Rockingham,https://www.bjs.com/cl/Portsmouth/0062,Tues-Sat :- 10 AM-6 PM |,603-431-6323
39,Bj's Wholesale Club Nashua,"8 Sexton Ave, Nashua, NH, 03060",8 Sexton Ave,Nashua,NH,3060,Hillsborough,https://www.bjs.com/cl/Nashua/0039,Sun :- 12 PM-5PM  |  Mon-Fri :- 10 AM-7 PM |  Sat :- 9 AM-7PM,603-888-8117
370,Bj's Wholesale Club Kearny,"180 Passaic Ave, Kearny, NJ, 07032",180 Passaic Ave,Kearny,NJ,7032,Hudson,https://www.bjs.com/cl/Kearny/0370,Mon-Fri :- 10 AM-7 PM |  Sat :- 9AM-7PM |  Sun :- 12 PM-5 PM,201-991-2026
192,Bj's Wholesale Club Manahawkin,"321 Martin Truex Jr Blvd, Manahawkin, NJ, 08050",321 Martin Truex Jr Blvd,Manahawkin,NJ,8050,Ocean,https://www.bjs.com/cl/Manahawkin/0192,Sun :- 12 PM-5PM  |  Mon-Fri :- 10 AM-7 PM |  Sat :- 9 AM-7PM,609-597-6250
8,Bj's Wholesale Club East Rutherford,"300 Route 17 North, East Rutherford, NJ, 07073",300 Route 17 North,East Rutherford,NJ,7073,Bergen,https://www.bjs.com/cl/East-Rutherford/0008,Mon-Fri :- 10 AM-7 PM | Sat :- 9 AM-7 PM,201-438-3031
74,Bj's Wholesale Club Mays Landing,"200 Wrangleboro Rd, Mays Landing, NJ, 08330",200 Wrangleboro Rd,Mays Landing,NJ,8330,Atlantic,https://www.bjs.com/cl/Mays-Landing/0074,Sun :- 12 PM-5PM  |  Mon-Fri :- 10 AM-6 PM |  Sat :- 9 AM-7PM,609-484-0067
210,Bj's Wholesale Club North Brunswick,"2451 US Highway 1 South, North Brunswick, NJ, 08902",2451 US Highway 1 South,North Brunswick,NJ,8902,Middlesex,https://www.bjs.com/cl/North-Brunswick/0210,Sun :- 12 PM-5PM  |  Mon-Fri :- 10 AM-7 PM |  Sat :- 9 AM-7PM,732-940-0678
85,Bj's Wholesale Club Deptford,"1910 Deptford Center Rd, Woodbury, NJ, 08096",1910 Deptford Center Rd,Woodbury,NJ,8096,Gloucester,https://www.bjs.com/cl/Deptford/0085,Sun :- 12 PM-5PM  |  Mon-Fri :- 10 AM-7 PM |  Sat :- 9 AM-7PM,856-374-8925
141,Bj's Wholesale Club Hamilton Township,"900 Marketplace Blvd, Robbinsville, NJ, 08691",900 Marketplace Blvd,Robbinsville,NJ,8691,Mercer,https://www.bjs.com/cl/Hamilton-Township/0141,Tue-Fri :- 10 AM-6 PM |  Sat :- 9 AM-7PM,609-581-9416
153,Bj's Wholesale Club Voorhees,"152 Route 73, Voorhees, NJ, 08043",152 Route 73,Voorhees,NJ,8043,Camden,https://www.bjs.com/cl/Voorhees/0153,Sun :- 12 PM-5PM  |  Mon-Fri :- 10 AM-6 PM |  Sat :- 9 AM-7PM,856-753-3091
371,Bj's Wholesale Club Howell,"5371 Route 9 North, Howell, NJ, 07731",5371 Route 9 North,Howell,NJ,7731,Monmouth,https://www.bjs.com/cl/Howell/0371,Sun :- 12 PM-5 PM | Mon-Fri :- 10 AM-6 PM |  Sat :- 9 AM-7 PM,732-942-4518
117,Bj's Wholesale Club Paramus,"30 S State Rte 17, Paramus, NJ, 07652",30 S State Rte 17,Paramus,NJ,7652,Bergen,https://www.bjs.com/cl/Paramus/0117,Sun :- Closed  |  Mon-Fri :- 10 AM-7 PM  | Sat :- 9 AM-7 PM,201-845-5200
26,Bj's Wholesale Club Edison,"1000 Us Highway 1, Edison, NJ, 08817",1000 Us Highway 1,Edison,NJ,8817,Middlesex,https://www.bjs.com/cl/Edison/0026,Sun :- 12 PM-5PM  |  Mon-Fri :- 10 AM-7 PM |  Sat :- 9 AM-7PM,732-494-7102
27,Bj's Wholesale Club Ocean Township,"1904 State Route 35, Oakhurst, NJ, 07755",1904 State Route 35,Oakhurst,NJ,7755,Monmouth,https://www.bjs.com/cl/Ocean-Township/0027,Sun :- 12 PM-5 PM | Mon-Fri :- 10 AM-7 PM | Sat :- 9AM-7 PM,732-493-5017
48,Bj's Wholesale Club Roxbury,"One Howard Blvd, Ledgewood, NJ, 07852",One Howard Blvd,Ledgewood,NJ,7852,Morris,https://www.bjs.com/cl/Roxbury/0048,Sun :- 12 PM-5PM  |  Mon-Fri :- 10 AM-8 PM |  Sat :- 9 AM-7PM,973-252-0945
100,Bj's Wholesale Club Toms River,"941 Route 37 W, Toms River, NJ, 08755",941 Route 37 W,Toms River,NJ,8755,Ocean,https://www.bjs.com/cl/Toms-River/0100,Sun :- 12 PM-5PM | Mon-Friday :- 10 AM-7 PM | Sat :- 9 AM-7 PM,732-818-9221
13,Bj's Wholesale Club Maple Shade,"131 East Kings Highway, Maple Shade, NJ, 08052",131 East Kings Highway,Maple Shade,NJ,8052,Burlington,https://www.bjs.com/cl/Maple-Shade/0013,Sun-Sat :- 11 AM-5 PM,856-778-7168
156,Bj's Wholesale Club Vineland,"3849 S Delsea Drive, Vineland, NJ, 08360",3849 S Delsea Drive,Vineland,NJ,8360,Cumberland,https://www.bjs.com/cl/Vineland/0156,Sun :- 12 PM-5PM  |  Mon-Fri :- 10 AM-6 PM |  Sat :- 9 AM-7PM,856-293-0270
94,Bj's Wholesale Club Riverdale,"110 State Rte 23, Riverdale, NJ, 07457",110 State Rte 23,Riverdale,NJ,7457,Morris,https://www.bjs.com/cl/Riverdale/0094,Mon-Fri :- 10 AM-7 PM |  Sat :- 9 AM-5PM,973-248-1408
67,Bj's Wholesale Club Linden,"1001 E Edgar Rd, Linden, NJ, 07036",1001 E Edgar Rd,Linden,NJ,7036,Union,https://www.bjs.com/cl/Linden/0067,Mon/Tue/Thurs/Fri :- 10 AM-7 PM |  Sat :- 9 AM-7 PM,908-862-8005
190,Bj's Wholesale Club North Bergen,"2100 88th St, North Bergen, NJ, 07047",2100 88th St,North Bergen,NJ,7047,Hudson,https://www.bjs.com/cl/North-Bergen/0190,Mon-Fri :- 10 AM-7 PM |  Sat :- 9 AM-6 PM | Sun :- 12 PM-5 PM,201-868-1520
44,Bj's Wholesale Club Jersey City,"396 Luis Munoz Marin Blvd, Jersey City, NJ, 07302",396 Luis Munoz Marin Blvd,Jersey City,NJ,7302,Hudson,https://www.bjs.com/cl/Jersey-City/0044,Sun :- 12 PM-5PM  |  Mon-Fri :- 10 AM-6 PM |  Sat :- 9 AM-7PM,201-792-2722
172,Bj's Wholesale Club Old Bridge,"1007 US Highway 9, Old Bridge, NJ, 08857",1007 US Highway 9,Old Bridge,NJ,8857,Middlesex,https://www.bjs.com/cl/Old-Bridge/0172,Sun :- 12 PM-5PM  |  Mon-Fri :- 10 AM-7 PM |  Sat :- 9 AM-7PM,732-316-8340
73,Bj's Wholesale Club Watchung,"1601 Us Highway 22, Watchung, NJ, 07069",1601 Us Highway 22,Watchung,NJ,7069,Somerset,https://www.bjs.com/cl/Watchung/0073,Sun :- 12 PM-5PM  |  Mon-Fri :- 10 AM-7 PM |  Sat :- 9 AM-7PM,908-322-9891
79,Bj's Wholesale Club Rotterdam,"70 W Campbell Rd, Schenectady, NY, 12306",70 W Campbell Rd,Schenectady,NY,12306,Schenectady,https://www.bjs.com/cl/Rotterdam/0079,Mon-Fri :- 10 AM-6 PM |  Sat :- 9:30 AM-5PM,518-372-1793
75,Bj's Wholesale Club Webster,"950 Ridge Rd, Webster, NY, 14580",950 Ridge Rd,Webster,NY,14580,Monroe,https://www.bjs.com/cl/Webster/0075,Sun :- 12 PM-5PM  |  Mon-Fri :- 10 AM-7 PM |  Sat :- 9 AM-7PM,585-787-0580
7,Bj's Wholesale Club Albany,"01440 Central Ave, Albany, NY, 12205",01440 Central Ave,Albany,NY,12205,Albany,https://www.bjs.com/cl/Albany/0007,Mon-Fri :- 10 AM-7 PM |  Sat :- 9 AM-7 PM | Sun :- 11 PM-4 PM,518-446-0866
364,Bj's Wholesale Club Long Island City,"34-60 48th Street, Long Island City, NY, 11101",34-60 48th Street,Long Island City,NY,11101,Queens,https://www.bjs.com/cl/Long-Island-City/0364,Mon/Tues/Thurs/Fri :- 10 AM-7 PM |  Sat :- 9AM-7 PM,516-862-2146
45,Bj's Wholesale Club E. Syracuse,"Two Chevy Dr, East Syracuse, NY, 13057",Two Chevy Dr,East Syracuse,NY,13057,Onondaga,https://www.bjs.com/cl/E.-Syracuse/0045,Sun :- 12 PM-5 PM | Mon-Sat :- 9 AM-6 PM,315-437-1846
49,Bj's Wholesale Club Islandia,"1000 Old Nichols Rd, Islandia, NY, 11749",1000 Old Nichols Rd,Islandia,NY,11749,Suffolk,https://www.bjs.com/cl/Islandia/0049,Mon-Fri :-  10 AM-7 PM | Sat :- 9 AM-7 PM | Sun :- 12 PM-5 PM,631-348-4028
195,Bj's Wholesale Club Brooklyn - Bensonhurst,"1752 Shore Parkway, Brooklyn, NY, 11214",1752 Shore Parkway,Brooklyn,NY,11214,Kings,https://www.bjs.com/cl/Brooklyn---Bensonhurst/0195,Mon-Fri :- 10 AM-7 PM |  Sat :- 9 AM-7 PM | Sun :- 12 PM-5 PM,718-996-0141
68,Bj's Wholesale Club Clay,"4145 State Route 31, Clay, NY, 13041",4145 State Route 31,Clay,NY,13041,Onondaga,https://www.bjs.com/cl/Clay/0068,Sun :- 12 PM-5PM  |  Mon-Fri :- 10 AM-6 PM |  Sat :- 9 AM-6PM,315-652-6712
165,Bj's Wholesale Club Valley Stream,"125 Green Acres Rd, Valley Stream, NY, 11581",125 Green Acres Rd,Valley Stream,NY,11581,Nassau,https://www.bjs.com/cl/Valley-Stream/0165,Sun :- 12 PM-5PM  |  Mon-Fri :- 10 AM-7 PM |  Sat :- 9 AM-7PM,516-872-1542
212,Bj's Wholesale Club Garden City,"711 Stewart Ave, Garden City, NY, 11530",711 Stewart Ave,Garden City,NY,11530,Nassau,https://www.bjs.com/cl/Garden-City/0212,Mon-Fri :- 10 AM-7 PM |  Sat :- 9 AM-7 PM  | Sun :- 12 PM-5 PM,516-794-4246
112,Bj's Wholesale Club Westbury,"6000 Brush Hollow Rd, Westbury, NY, 11590",6000 Brush Hollow Rd,Westbury,NY,11590,Nassau,https://www.bjs.com/cl/Westbury/0112,Mon-Fri :- 9 AM-7 PM |  Sat:9AM-7 PM |  Sun :- 12 PM-5 PM,516-334-3143
213,Bj's Wholesale Club Amherst,"3056 Sheridan Dr, Buffalo, NY, 14226",3056 Sheridan Dr,Buffalo,NY,14226,Erie,https://www.bjs.com/cl/Amherst/0213,Sun :- 12 PM-5PM  |  Mon/Thurs/Fri :- 10 AM-6 PM |  Sat :- 9 AM-7PM,716-833-3130
176,Bj's Wholesale Club Bronx,"610 Exterior St, Bronx, NY, 10451",610 Exterior St,Bronx,NY,10451,Bronx,https://www.bjs.com/cl/Bronx/0176,Mon-Fri :- 10 AM-6 PM |  Sat :- 9 AM-7 PM  | Sun :- 12 PM-5 PM,718-993-4250
312,Bj's Wholesale Club Riverhead,"607 Old Country Rd, Riverhead, NY, 11901",607 Old Country Rd,Riverhead,NY,11901,Suffolk,https://www.bjs.com/cl/Riverhead/0312,Sun :- 12 PM-5 PM | Mon :- 10 AM-3 PM | Mon- Fri :- 10 AM-7 PM | Sat :- 9 AM-6 PM,631-369-9421
76,Bj's Wholesale Club Yorktown Heights,"3303 Crompond Rd, Yorktown Heights, NY, 10598",3303 Crompond Rd,Yorktown Heights,NY,10598,Westchester,https://www.bjs.com/cl/Yorktown-Heights/0076,Sun :- 12 PM-5 PM | Mon-Fri :- 10 AM-7 PM  | Sat :- 9 AM-7 PM,914-736-1090
148,Bj's Wholesale Club Monroe,"232 Larkin Dr, Monroe, NY, 10950",232 Larkin Dr,Monroe,NY,10950,Orange,https://www.bjs.com/cl/Monroe/0148,Sun :- 12 PM-5PM  |  Mon-Fri :- 10 AM-7 PM |  Sat :- 9 AM-7PM,845-783-1134
204,Bj's Wholesale Club Canarsie,"900 Remsen Ave, Brooklyn, NY, 11236",900 Remsen Ave,Brooklyn,NY,11236,Kings,https://www.bjs.com/cl/Canarsie/0204,Sun :- 12 PM-5PM  |  Mon-Fri :- 10 AM-7 PM |  Sat :- 9 AM-7PM,718-629-0210
386,Bj's Wholesale Club Commack,"2 Veteran&sS Memorial Highway, Commack, NY, 11725",2 Veteran&sS Memorial Highway,Commack,NY,11725,Suffolk,https://www.bjs.com/cl/Commack/0386,Mon-Fri :- 10 AM-7 PM |  Sat :- 9AM-7PM |  Sun :- 12 PM-5 PM,631-462-3157
143,"Bj's Wholesale Club Middle Village, Queens","66-26 Metropolitan Ave, Middle Village, NY, 11379",66-26 Metropolitan Ave,Middle Village,NY,11379,Queens,"https://www.bjs.com/cl/Middle-Village,-Queens/0143",Sun :- 12 PM-5PM  |  Mon-Fri :- 10 AM-7 PM |  Sat :- 9 AM-7PM,718-456-2041
127,Bj's Wholesale Club Farmingdale,"50 Daniel St, Farmingdale, NY, 11735",50 Daniel St,Farmingdale,NY,11735,Nassau,https://www.bjs.com/cl/Farmingdale/0127,Sun :- 12 PM-5PM  |  Mon-Fri :- 10 AM-7 PM |  Sat :- 9 AM-7PM,631-777-1180
97,Bj's Wholesale Club College Point,"13705 20th Ave, College Point, NY, 11356",13705 20th Ave,College Point,NY,11356,Queens,https://www.bjs.com/cl/College-Point/0097,Mon/Tues/Wed/Fri :- 10 AM-7 PM |  Sat :- 9 AM-6 PM,718-353-1781
366,Bj's Wholesale Club Bellport - Brookhaven,"790 Sunrise Hwy S Service Rd, Bellport, NY, 11713",790 Sunrise Hwy S Service Rd,Bellport,NY,11713,Suffolk,https://www.bjs.com/cl/Bellport---Brookhaven/0366,Sun :- 12 PM-5 PM  |  Mon-Fri :- 10 AM-7 PM |  Sat :- 9 AM-5 PM,631-776-7676
352,Bj's Wholesale Club Ithaca,"40 Graham Rd West, Ithaca, NY, 14850",40 Graham Rd West,Ithaca,NY,14850,Tompkins,https://www.bjs.com/cl/Ithaca/0352,Sun :- 12 PM-5PM  |  Mon-Fri :- 10 AM-6 PM |  Sat :- 9 AM-7PM,607-257-0417
116,Bj's Wholesale Club Victor,"50 Eastview Mall Dr, Victor, NY, 14564",50 Eastview Mall Dr,Victor,NY,14564,Ontario,https://www.bjs.com/cl/Victor/0116,Sun :- 12 PM-5PM  |  Mon-Fri :- 10 AM-6 PM |  Sat :- 9 AM-7PM,585-223-0430
66,Bj's Wholesale Club Saratoga Springs,"3067 Route 50, Saratoga Springs, NY, 12866",3067 Route 50,Saratoga Springs,NY,12866,Saratoga,https://www.bjs.com/cl/Saratoga-Springs/0066,Mon-Fri :- 10 AM-7 PM :-  |  Sun :- 10:45 AM-4 PM,518-587-7715
11,Bj's Wholesale Club E. Setauket,"4000 Nesconset Hwy Rte 347, East Setauket, NY, 11733",4000 Nesconset Hwy Rte 347,East Setauket,NY,11733,Suffolk,https://www.bjs.com/cl/E.-Setauket/0011,Mon- Fri :- 10 AM-7 PM |  Sat :- 9 AM-7PM | Sun :- 12PM-5PM,631-331-2345
168,Bj's Wholesale Club Henrietta,"400 Jay Scutti Blvd, Rochester, NY, 14623",400 Jay Scutti Blvd,Rochester,NY,14623,Monroe,https://www.bjs.com/cl/Henrietta/0168,Sun :- 12 PM-5PM  |  Mon-Fri :- 10 AM-6 PM |  Sat :- 9 AM-7PM,585-292-0010
142,Bj's Wholesale Club Clarence,"5183 Transit Rd, Buffalo, NY, 14221",5183 Transit Rd,Buffalo,NY,14221,Erie,https://www.bjs.com/cl/Clarence/0142,Sun :- 12 PM-5PM  |  Mon-Fri :- 10 AM-6 PM |  Sat :- 10 AM-7PM,716-839-3723
359,Bj's Wholesale Club Deer Park,"1900 The Arches Cir, Deer Park, NY, 11729",1900 The Arches Cir,Deer Park,NY,11729,Suffolk,https://www.bjs.com/cl/Deer-Park/0359,Sun :- 12 PM-5PM  |  Mon-Fri :- 10 AM-7 PM |  Sat :- 9 AM-7PM,631-667-3140
64,Bj's Wholesale Club Utica,"400 River Rd, Utica, NY, 13502",400 River Rd,Utica,NY,13502,Oneida,https://www.bjs.com/cl/Utica/0064,Sun :- 12 PM-5PM  |  Mon-Fri :- 10 AM-6 PM |  Sat :- 9 AM-6PM,315-733-4011
53,Bj's Wholesale Club Wappingers Falls,"1404 Us Route 9, Wappingers Falls, NY, 12590",1404 Us Route 9,Wappingers Falls,NY,12590,Dutchess,https://www.bjs.com/cl/Wappingers-Falls/0053,"Sun :- 12PM-5 PM,br&g; Mon -Fri :- 10 AM-7 :- PM |  Sat :- 9 AM-7 PM ",845-298-2711
185,Bj's Wholesale Club Greece,"300 Bellwood Dr, Rochester, NY, 14606",300 Bellwood Dr,Rochester,NY,14606,Monroe,https://www.bjs.com/cl/Greece/0185,Mon-Fri :- 10 AM-6 PM |  Sat :- 9 AM-7 PM |  Sun 12 PM-5 PM,585-723-6910
160,Bj's Wholesale Club Levittown,"3635 Hempstead Tpke, Levittown, NY, 11756",3635 Hempstead Tpke,Levittown,NY,11756,Nassau,https://www.bjs.com/cl/Levittown/0160,Sun :- 11 PM-4PM  |  Mon-Fri :- 10 AM-7 PM |  Sat :- 9 AM-7PM,516-735-2067
206,Bj's Wholesale Club Flushing,"131-07 40th Rd Ste A100, Flushing, NY, 11354",131-07 40th Rd Ste A100,Flushing,NY,11354,Queens,https://www.bjs.com/cl/Flushing/0206,Sun :- 12 PM-6 PM | Mon-Thurs :- 10 AM-7 PM,718-321-0745
136,Bj's Wholesale Club Freeport,"100 MIll Rd, Freeport, NY, 11520",100 MIll Rd,Freeport,NY,11520,Nassau,https://www.bjs.com/cl/Freeport/0136,Mon-Fri :- 10 AM-7 PM |  Sat :- 9 AM-7 PM  | Sun :- 12 PM-5 PM,516-223-0352
77,Bj's Wholesale Club West Nyack,"1050 Palisades Center Dr, West Nyack, NY, 10994",1050 Palisades Center Dr,West Nyack,NY,10994,Rockland,https://www.bjs.com/cl/West-Nyack/0077,Sun :- 12 PM-5 PM | Mon-Fri :- 10:00 AM-7 PM |  Sat :- 9:00 AM-7PM,845-348-9226
35,Bj's Wholesale Club Hamburg,"4408 Milestrip Rd, Buffalo, NY, 14219",4408 Milestrip Rd,Buffalo,NY,14219,Erie,https://www.bjs.com/cl/Hamburg/0035,Sun-Sat :- 11 AM-5 PM,716-825-3060
372,Bj's Wholesale Club Newburgh,"401 Auto Park Place, Newburgh, NY, 12550",401 Auto Park Place,Newburgh,NY,12550,Orange,https://www.bjs.com/cl/Newburgh/0372,Mon-Fri :- 10 AM-7 PM |  Sat :- 9AM-7PM |  Sun :- 12 PM-5 PM,845-563-9161
201,Bj's Wholesale Club Pelham Manor,"825 Pelham Pkwy, Pelham, NY, 10803",825 Pelham Pkwy,Pelham,NY,10803,Westchester,https://www.bjs.com/cl/Pelham-Manor/0201,Sun :- 12 PM-5PM  |  Mon-Fri :- 10 AM-7 PM |  Sat :- 9 AM-7PM,914-636-0890
138,Bj's Wholesale Club Brooklyn,"339 Gateway Dr, Brooklyn, NY, 11239",339 Gateway Dr,Brooklyn,NY,11239,Kings,https://www.bjs.com/cl/Brooklyn/0138,Sun :- 12 PM-5 PM |  Mon- Fri :- 11 AM-7 PM | Sat:9 AM-7 PM,718-348-4125
363,Bj's Wholesale Club Bronx - Riverdale,"184 West 237th St, Bronx, NY, 10463",184 West 237th St,Bronx,NY,10463,Bronx,https://www.bjs.com/cl/Bronx---Riverdale/0363,Sun :- 12 PM-5PM  | Mon-Fri :- 10 AM-7 PM | Sat :- 9 AM-7 PM,718-548-3181
102,Bj's Wholesale Club Akron,"1677 Home Ave, Akron, OH, 44310",1677 Home Ave,Akron,OH,44310,Summit,https://www.bjs.com/cl/Akron/0102,Sun :- 12 PM-5 PM | Mon-Fri :- 10 AM-6 PM |  Sat :- 9 AM-7 PM,330-926-9018
10,Bj's Wholesale Club North Canton,"6924 Frank Ave Nw, North Canton, OH, 44720",6924 Frank Ave Nw,North Canton,OH,44720,Stark,https://www.bjs.com/cl/North-Canton/0010,Sun :- 12 PM-5 PM | Mon-Fri 10AM-6PM  |  Sat :- 9 AM-7 PM,330-499-5498
122,Bj's Wholesale Club Warrensville Heights,"4365 Richmond Rd, Beachwood, OH, 44122",4365 Richmond Rd,Beachwood,OH,44122,Cuyahoga,https://www.bjs.com/cl/Warrensville-Heights/0122,Mon-Fri :- 10 AM-6 PM |  Sat :- 9AM-5PM,216-896-9522
115,Bj's Wholesale Club Avon,"38292 Colorado Ave, Avon, OH, 44011",38292 Colorado Ave,Avon,OH,44011,Lorain,https://www.bjs.com/cl/Avon/0115,Sun :- 12 PM-5 PM | Mon-Fri :- 10 AM-7 PM |  Sat :- 9 AM-7PM,440-934-7003
124,Bj's Wholesale Club Middleburg Heights,"6944 W 130th St, Cleveland, OH, 44130",6944 W 130th St,Cleveland,OH,44130,Cuyahoga,https://www.bjs.com/cl/Middleburg-Heights/0124,Mon/Tues/Thurs/Fri :- 10 AM-6 PM |  Sat :- 9 AM-7PM,440-842-5282
96,Bj's Wholesale Club Willoughby,"36595 Euclid Ave, Willoughby, OH, 44094",36595 Euclid Ave,Willoughby,OH,44094,Lake,https://www.bjs.com/cl/Willoughby/0096,Mon/Fri-10 AM-6 PM,440-975-8370
57,Bj's Wholesale Club Reading,"550 Madison Ave, Reading, PA, 19605",550 Madison Ave,Reading,PA,19605,Berks,https://www.bjs.com/cl/Reading/0057,Sun :- 12 PM-5PM |  Mon :- 10 AM-7 PM | Tues-Fri :- 10 AM-6 PM | Sat :- 9 AM-7PM,610-939-9353
92,Bj's Wholesale Club Plymouth Meeting,"300 Alan Wood Rd, Conshohocken, PA, 19428",300 Alan Wood Rd,Conshohocken,PA,19428,Montgomery,https://www.bjs.com/cl/Plymouth-Meeting/0092,Sun :- 12 PM-5PM  |  Mon-Fri :- 10 AM-6 PM |  Sat :- 9 AM-7PM,610-940-5710
387,Bj's Wholesale Club Ross Township,"6720 Northway Drive, Pittsburgh, PA, 15237",6720 Northway Drive,Pittsburgh,PA,15237,Allegheny,https://www.bjs.com/cl/Ross-Township/0387,Mon-Fri :- 10 AM-7 PM |  Sat :- 9AM-7PM |  Sun :- 12 PM-5 PM,412-369-9167
200,Bj's Wholesale Club Oaks,"200-C MIll Rd, Oaks, PA, 19456",200-C MIll Rd,Oaks,PA,19456,Montgomery,https://www.bjs.com/cl/Oaks/0200,Mon/Tue/Thurs/Fri :- 10 AM-6 PM |  Sat :- 9 AM-7 PM,610-650-4062
25,Bj's Wholesale Club Camp Hill,"3805 Hartzdale Dr, Camp Hill, PA, 17011",3805 Hartzdale Dr,Camp Hill,PA,17011,Cumberland,https://www.bjs.com/cl/Camp-Hill/0025,Sun :- 12 PM-5PM  |  Mon-Fri :- 10 AM-7 PM |  Sat :- 9 AM-7PM,717-761-4820
350,Bj's Wholesale Club Quakertown,"616 N West End Blvd, Quakertown, PA, 18951",616 N West End Blvd,Quakertown,PA,18951,Bucks,https://www.bjs.com/cl/Quakertown/0350,Sun :- 12 PM-5PM  |  Mon-Fri :- 10 AM-6 PM |  Sat :- 9 AM-7PM,215-536-3173
63,Bj's Wholesale Club York,"02250 York Crossing Dr, York, PA, 17404",02250 York Crossing Dr,York,PA,17404,York,https://www.bjs.com/cl/York/0063,Sun :- 12 PM-5PM  |  Mon-Fri :- 10 AM-7 PM |  Sat :- 9 AM-7PM,717-764-3798
21,Bj's Wholesale Club Allentown,"1785 Airport Rd South, Allentown, PA, 18109",1785 Airport Rd South,Allentown,PA,18109,Lehigh,https://www.bjs.com/cl/Allentown/0021,Sun :- 12-5pm | Mon-Fri :- 10 AM-7 PM |  Sat :- 9 AM-7 PM,610-266-0936
388,Bj's Wholesale Club South Fayette,"4000 Victoria St, Bridgeville, PA, 15017",4000 Victoria St,Bridgeville,PA,15017,Allegheny,https://www.bjs.com/cl/South-Fayette/0388,Mon-Fri :- 10 AM-7 PM |  Sat :- 9AM-7PM |  Sun :- 12 PM-5 PM,412-220-2477
319,Bj's Wholesale Club Stroudsburg,"159 Pocono Commons Dr, Stroudsburg, PA, 18360",159 Pocono Commons Dr,Stroudsburg,PA,18360,Monroe,https://www.bjs.com/cl/Stroudsburg/0319,Sun :- 12 PM-5PM  |  Mon-Fri :- 10 AM-7 PM |  Sat :- 9 AM-7PM,570-421-5261
19,Bj's Wholesale Club Lancaster,"110 Centerville Rd, Lancaster, PA, 17603",110 Centerville Rd,Lancaster,PA,17603,Lancaster,https://www.bjs.com/cl/Lancaster/0019,Sun :- 12 PM-5 PM |  Mon-Fri :- 10 AM-7 PM | Sat :- 9 AM-7 PM,717-391-8110
162,Bj's Wholesale Club South Philadelphia,"2300 W Oregon Ave, Philadelphia, PA, 19145",2300 W Oregon Ave,Philadelphia,PA,19145,Philadelphia,https://www.bjs.com/cl/South-Philadelphia/0162,Sun :- 12 PM-5PM  |  Mon-Fri :- 10 AM-6 PM |  Sat :- 9 AM-7PM,215-463-0899
86,Bj's Wholesale Club Downingtown,"1008 E Lancaster Ave, Downingtown, PA, 19335",1008 E Lancaster Ave,Downingtown,PA,19335,Chester,https://www.bjs.com/cl/Downingtown/0086,Mon/Tues/Wed/Fri :- 10 AM-7 PM |   Sat :- 9 AM-7PM,610-518-5768
52,Bj's Wholesale Club Langhorne,"350 Commerce Blvd, Fairless Hills, PA, 19030",350 Commerce Blvd,Fairless Hills,PA,19030,Bucks,https://www.bjs.com/cl/Langhorne/0052,Sun-Sat :- 11 AM-5 PM,215-945-7110
167,Bj's Wholesale Club Warrington,"200 Easton Rd, Warrington, PA, 18976",200 Easton Rd,Warrington,PA,18976,Bucks,https://www.bjs.com/cl/Warrington/0167,Sun :- 12 PM-5PM  |  Mon-Fri :- 10 AM-6 PM |  Sat :- 9 AM-7PM,215-343-7090
56,Bj's Wholesale Club Springfield,"1260 E Woodland Ave, Springfield, PA, 19064",1260 E Woodland Ave,Springfield,PA,19064,Delaware,https://www.bjs.com/cl/Springfield/0056,Mon-Fri :- 10 AM-7 PM |  Sat :- 9 AM-7PM   |  Sun :- 12 PM-5 PM,610-544-4303
369,Bj's Wholesale Club Montgomeryville,"640 Cowpath Rd, Lansdale, PA, 19446",640 Cowpath Rd,Lansdale,PA,19446,Montgomery,https://www.bjs.com/cl/Montgomeryville/0369,Sun :- 12 PM-5PM  |  Mon-Fri :- 10 AM-7 PM |  Sat :- 9 AM-7PM,215-855-3684
368,Bj's Wholesale Club Chambersburg,"540 Gateway Ave, Chambersburg, PA, 17201",540 Gateway Ave,Chambersburg,PA,17201,Franklin,https://www.bjs.com/cl/Chambersburg/0368,Sun :- 12 PM-5PM  |  Mon-Fri :- 10 AM-6 PM |  Sat :- 9 AM-7PM,717-264-5202
22,Bj's Wholesale Club Philadelphia,"2044 Red Lion Rd, Philadelphia, PA, 19115",2044 Red Lion Rd,Philadelphia,PA,19115,Philadelphia,https://www.bjs.com/cl/Philadelphia/0022,Sun :- 12 PM-5PM  |  Mon-Fri :- 10 AM-6 PM |  Sat :- 9 AM-7PM,215-677-8213
306,Bj's Wholesale Club Middletown,"173 E Main Rd, Middletown, RI, 02842",173 E Main Rd,Middletown,RI,2842,Newport,https://www.bjs.com/cl/Middletown/0306,Mon-Fri :- 10 AM-6 PM | Sat :- 9 AM-7 PM | Sun :- 12 PM-5 PM,401-845-2117
208,Bj's Wholesale Club Johnston,"200 Stonehill Dr, Johnston, RI, 02919",200 Stonehill Dr,Johnston,RI,2919,Providence,https://www.bjs.com/cl/Johnston/0208,Mon-Fri :- 10 AM-7 PM |  Sat :- 9 AM-7 PM |  Sun :- 12 PM-5 PM,401-943-1043
119,Bj's Wholesale Club Coventry,"790 Ctr Of New England Blvd, Coventry, RI, 02816",790 Ctr Of New England Blvd,Coventry,RI,2816,Kent,https://www.bjs.com/cl/Coventry/0119,Mon-Fri :- 10 AM-7 PM |  Sat :- 9 AM-7 PM |  Sun :- 12 PM-5 PM,401-826-1653
378,Bj's Wholesale Club Summerville,"1035 Jockey Court, Summerville, SC, 29483",1035 Jockey Court,Summerville,SC,29483,Dorchester,https://www.bjs.com/cl/Summerville/0378,Sun :- 12 PM-5PM  |  Mon-Fri :- 10 AM-7 PM |  Sat :- 9 AM-7PM,843-875-7875
139,Bj's Wholesale Club Mechanicsville,"7260 Bell Creek Rd, Mechanicsville, VA, 23111",7260 Bell Creek Rd,Mechanicsville,VA,23111,Hanover,https://www.bjs.com/cl/Mechanicsville/0139,Sun :- 12 PM-5PM  |  Mon-Fri :- 10 AM-7 PM |  Sat :- 9 AM-7PM,804-559-9554
46,Bj's Wholesale Club Alexandria,"101 S Van Dorn St, Alexandria, VA, 22304",101 S Van Dorn St,Alexandria,VA,22304,Alexandria city,https://www.bjs.com/cl/Alexandria/0046,Sun :- 12 PM-5PM  |  Mon-Fri :- 10 AM-7 PM |  Sat :- 9 AM-7PM,703-212-7359
186,Bj's Wholesale Club Hampton,"2000 Power Plant Parkway, Hampton, VA, 23666",2000 Power Plant Parkway,Hampton,VA,23666,Hampton city,https://www.bjs.com/cl/Hampton/0186,Mon-Fri :- 10 AM-7 PM | Sat :- 9 AM-7PM | Sun :- 12 PM-5 PM,757-826-5482
33,Bj's Wholesale Club Fairfax,"13053 Fair Lakes Shopping Ctr, Fairfax, VA, 22033",13053 Fair Lakes Shopping Ctr,Fairfax,VA,22033,Fairfax,https://www.bjs.com/cl/Fairfax/0033,Mon-Fri :- 10 AM-7 PM |  Sat :- 9 AM-7PM,703-802-0612
219,Bj's Wholesale Club Roanoke,"1419 Hershberger Road NW, Roanoke, VA, 24012",1419 Hershberger Road NW,Roanoke,VA,24012,Roanoke city,https://www.bjs.com/cl/Roanoke/0219,Sun :- 12 PM-5PM  |  Mon-Fri :- 10 AM-6 PM |  Sat :- 9 AM-7PM,540-265-8654
198,Bj's Wholesale Club Richmond,"1320 Starling Dr, Henrico, VA, 23229",1320 Starling Dr,Henrico,VA,23229,Henrico,https://www.bjs.com/cl/Richmond/0198,Mon-Fri :- 10 AM-6 PM |  Sat :- 9 AM-7PM,804-750-1680
180,Bj's Wholesale Club Norfolk,"5820 E Virginia Beach Blvd, Norfolk, VA, 23502",5820 E Virginia Beach Blvd,Norfolk,VA,23502,Norfolk city,https://www.bjs.com/cl/Norfolk/0180,Mon-Fri :- 10 AM-6 PM |  Sat :- 9 AM-6 PM |,757-466-1560
70,Bj's Wholesale Club Chesapeake,"2301 Taylor Rd, Chesapeake, VA, 23321",2301 Taylor Rd,Chesapeake,VA,23321,Chesapeake city,https://www.bjs.com/cl/Chesapeake/0070,Sun :- 12 PM-5PM  |  Mon-Fri :- 10 AM-6 PM |  Sat :- 9 AM-7PM,757-465-1376
351,Bj's Wholesale Club Falls Church,"6607 Wilson Blvd, Falls Church, VA, 22044",6607 Wilson Blvd,Falls Church,VA,22044,Fairfax,https://www.bjs.com/cl/Falls-Church/0351,Sun :- 12 PM-5PM  |  Mon-Fri :- 10 AM-7 PM |  Sat :- 9 AM-7PM,703-241-5689
36,Bj's Wholesale Club Virginia Beach,"3712 Virginia Beach Blvd, Virginia Beach, VA, 23452",3712 Virginia Beach Blvd,Virginia Beach,VA,23452,Virginia Beach city,https://www.bjs.com/cl/Virginia-Beach/0036,Sun :- 12 PM-5 PM | Mon-Fri :- 10 AM-7 PM |  Sat :- 9 AM-7PM,757-463-3576
360,Bj's Wholesale Club Gainesville,"5100 Wellington Rd, Gainesville, VA, 20155",5100 Wellington Rd,Gainesville,VA,20155,Prince William,https://www.bjs.com/cl/Gainesville/0360,Mon/Tues/Wed/Fri :- 10 AM-6 PM |  Sat :- 9 AM-7PM,703-754-1730
41,Bj's Wholesale Club Woodbridge,"14123 Noblewood Plaza, Woodbridge, VA, 22193",14123 Noblewood Plaza,Woodbridge,VA,22193,Prince William,https://www.bjs.com/cl/Woodbridge/0041,Sun :- 12PM-5PM | Mon-Fri :- 10 AM-7 PM |  Sat :- 9 AM-7PM,703-730-1895
69,Bj's Wholesale Club Fredericksburg,"3985 Plank Rd, Fredericksburg, VA, 22407",3985 Plank Rd,Fredericksburg,VA,22407,Spotsylvania,https://www.bjs.com/cl/Fredericksburg/0069,Mon-Fri :- 10 AM-7 PM |  Sat :- 9 AM-7PM |  Sun :- 12 PM-5PM,540-785-0219
178,Bj's Wholesale Club Newark,"100 Pencader Plaza, Newark, DE, 19713",100 Pencader Plaza,Newark,DE,19713,New Castle,https://www.bjs.com/cl/Newark/0178,Mon-Fri :- 10 AM-7 PM |  Sat :- 9 AM-7PM |  Sun :- 12 PM-5 PM,302-369-3780
54,Bj's Wholesale Club Pembroke Pines,"13700 Pines Blvd, Hollywood, FL, 33027",13700 Pines Blvd,Hollywood,FL,33027,Broward,https://www.bjs.com/cl/Pembroke-Pines/0054,Mon-Fri :- 10 AM-7 PM |  Sat :- 9 AM-7PM,954-435-1144
315,Bj's Wholesale Club Torrington,"1280 East Main St, Torrington, CT, 06790",1280 East Main St,Torrington,CT,6790,Litchfield,https://www.bjs.com/cl/Torrington/0315,Mon-Fri :- 10 AM-7 PM |  Sat :- 9 AM-7PM,860-489-2721
193,Bj's Wholesale Club Stratford,"955 Ferry Blvd, Stratford, CT, 06614",955 Ferry Blvd,Stratford,CT,6614,Fairfield,https://www.bjs.com/cl/Stratford/0193,Tues-Fri :- 10 AM-6 PM |  Sat :- 9 AM-5 PM,203-375-7988
78,Bj's Wholesale Club West Hartford,"507 New Park Ave, West Hartford, CT, 06110",507 New Park Ave,West Hartford,CT,6110,Hartford,https://www.bjs.com/cl/West-Hartford/0078,Fri :- 10 AM-7 PM |  Sun :- 12 PM-5PM,860-231-8160
184,Bj's Wholesale Club Manchester,"1046 Tolland Turnpike, Manchester, CT, 06042",1046 Tolland Turnpike,Manchester,CT,6042,Hartford,https://www.bjs.com/cl/Manchester/0184,Mon/Tue/Thurs/Fri/Sat :- 9 AM-6PM,860-645-3822
93,Bj's Wholesale Club North Haven,"555 Universal Dr N, North Haven, CT, 06473",555 Universal Dr N,North Haven,CT,6473,New Haven,https://www.bjs.com/cl/North-Haven/0093,Mon-Sat :- 9 AM-7 PM | Sun :- 12 PM-5 PM,203-234-2695
84,Bj's Wholesale Club Waterford,"125 Cross Rd, Waterford, CT, 06385",125 Cross Rd,Waterford,CT,6385,New London,https://www.bjs.com/cl/Waterford/0084,Mon/Tue/Thurs/Fri :- 10 AM-7 PM |  Sat :- 9 AM -7PM,860-437-8455
173,Bj's Wholesale Club Wallingford,"1046 N Colony Rd, Wallingford, CT, 06492",1046 N Colony Rd,Wallingford,CT,6492,New Haven,https://www.bjs.com/cl/Wallingford/0173,Mon-Fri :- 9 AM-7 PM |  Sat :- 9 AM-7 PM | Sun :- 12 PM-5 PM,203-269-9925
318,Bj's Wholesale Club Derby,"20 Division St, Derby, CT, 06418",20 Division St,Derby,CT,6418,New Haven,https://www.bjs.com/cl/Derby/0318,Mon-Sat :- 10 AM-6 PM,203-732-7638
31,Bj's Wholesale Club Fairfield,"40 Black Rock Tpke, Fairfield, CT, 06825",40 Black Rock Tpke,Fairfield,CT,6825,Fairfield,https://www.bjs.com/cl/Fairfield/0031,Mon-Fri :- 10 AM-7 PM |  Sat :- 9 AM-7 PM  | Sun :- 12 PM-5 PM,203-333-9596
37,Bj's Wholesale Club Waterbury,"344 Reidville Dr, Waterbury, CT, 06705",344 Reidville Dr,Waterbury,CT,6705,New Haven,https://www.bjs.com/cl/Waterbury/0037,Mon/Tues/Thurs/Fri/Sat :- 9 AM-5 PM,203-574-7775
203,Bj's Wholesale Club Southington,"75 Spring St, Southington, CT, 06489",75 Spring St,Southington,CT,6489,Hartford,https://www.bjs.com/cl/Southington/0203,Sun :- 12 PM-5PM  |  Mon-Fri :- 10 AM-7 PM |  Sat :- 9 AM-7PM,860-628-0159
214,Bj's Wholesale Club Brookfield,"106 Federal Rd, Brookfield, CT, 06804",106 Federal Rd,Brookfield,CT,6804,Fairfield,https://www.bjs.com/cl/Brookfield/0214,Mon-Sat :- 10 AM-7 PM,203-740-0961
197,Bj's Wholesale Club Millsboro,"26676 Centerview Dr, Millsboro, DE, 19966",26676 Centerview Dr,Millsboro,DE,19966,Sussex,https://www.bjs.com/cl/Millsboro/0197,Sun :- 12 PM-5PM  |  Mon-Fri :- 9 AM-7 PM |  Sat :- 9 AM-7PM,302-934-1402
354,Bj's Wholesale Club Elsmere,"2131 Kirkwood Hwy, Wilmington, DE, 19805",2131 Kirkwood Hwy,Wilmington,DE,19805,New Castle,https://www.bjs.com/cl/Elsmere/0354,Sun:12PM-5:PM | Mon-Fri :- 10 AM-7 PM |  Sat :- 9 AM-7PM,302-999-9657
15,Bj's Wholesale Club New Castle,"124 Sunset Blvd, New Castle, DE, 19720",124 Sunset Blvd,New Castle,DE,19720,New Castle,https://www.bjs.com/cl/New-Castle/0015,Sun :- 12PM-5PM | Mon-Fri :- 10 AM-7 PM |  Sat :- 9AM-7PM,302-322-4131
170,Bj's Wholesale Club Homestead,"650 Se 8th St, Homestead, FL, 33034",650 Se 8th St,Homestead,FL,33034,Miami-Dade,https://www.bjs.com/cl/Homestead/0170,Mon-Fri :- 10 AM-6 PM |  Sat :- 9 AM-7PM,305-248-7538
367,Bj's Wholesale Club Coral Way,"7050 Coral Way, Miami, FL, 33155",7050 Coral Way,Miami,FL,33155,Miami-Dade,https://www.bjs.com/cl/Coral-Way/0367,Sun :- 12 PM-5PM  |  Mon-Fri :- 10 AM-7 PM |  Sat :- 9 AM-7PM,305-262-8480
